[
  {
    "OBJECT_NAME": "STARLINK-3912",
    "OBJECT_ID": "22049BD",
    "EPOCH": "2025-11-11T03:34:03.044640",
    "MEAN_MOTION": 15.08825599,
    "ECCENTRICITY": 0.0001446,
    "INCLINATION": 53.2172,
    "RA_OF_ASC_NODE": 211.3007,
    "ARG_OF_PERICENTER": 113.7135,
    "MEAN_ANOMALY": 246.401,
    "EPHEMERIS_TYPE": 0,
    "CLASSIFICATION_TYPE": "U",
    "NORAD_CAT_ID": 52502,
    "ELEMENT_SET_NO": 999,
    "REV_AT_EPOCH": 19463,
    "BSTAR": 0.00014206,
    "MEAN_MOTION_DOT": 1.973e-05,
    "MEAN_MOTION_DDOT": 0.0,
    "TLE_LINE1": "1 52502U 22049BD  25315.14864635  .00001973  00000+0  14206-3 0  9999",
    "TLE_LINE2": "2 52502  53.2172 211.3007 0001446 113.7135 246.4010 15.08825599194638",
    "COMMENT": "Grouped by shell and plane from TLE"
  },
  {
    "OBJECT_NAME": "STARLINK-3861",
    "OBJECT_ID": "22049BE",
    "EPOCH": "2025-11-11T03:18:07.137504",
    "MEAN_MOTION": 15.08850576,
    "ECCENTRICITY": 0.0001296,
    "INCLINATION": 53.2163,
    "RA_OF_ASC_NODE": 211.2057,
    "ARG_OF_PERICENTER": 91.979,
    "MEAN_ANOMALY": 268.1351,
    "EPHEMERIS_TYPE": 0,
    "CLASSIFICATION_TYPE": "U",
    "NORAD_CAT_ID": 52503,
    "ELEMENT_SET_NO": 999,
    "REV_AT_EPOCH": 19463,
    "BSTAR": 0.0,
    "MEAN_MOTION_DOT": -6.02e-06,
    "MEAN_MOTION_DDOT": 0.0,
    "TLE_LINE1": "1 52503U 22049BE  25315.13758261 -.00000602  00000+0 -19727-4 0  9990",
    "TLE_LINE2": "2 52503  53.2163 211.2057 0001296  91.9790 268.1351 15.08850576194632",
    "COMMENT": "Grouped by shell and plane from TLE"
  },
  {
    "OBJECT_NAME": "STARLINK-5464",
    "OBJECT_ID": "22175A",
    "EPOCH": "2025-11-11T02:25:11.298144",
    "MEAN_MOTION": 15.08844854,
    "ECCENTRICITY": 0.000146,
    "INCLINATION": 53.2154,
    "RA_OF_ASC_NODE": 211.6817,
    "ARG_OF_PERICENTER": 81.9159,
    "MEAN_ANOMALY": 278.1999,
    "EPHEMERIS_TYPE": 0,
    "CLASSIFICATION_TYPE": "U",
    "NORAD_CAT_ID": 54758,
    "ELEMENT_SET_NO": 999,
    "REV_AT_EPOCH": 16208,
    "BSTAR": 0.00035326000000000004,
    "MEAN_MOTION_DOT": 5.339e-05,
    "MEAN_MOTION_DDOT": 0.0,
    "TLE_LINE1": "1 54758U 22175A   25315.10082521  .00005339  00000+0  35326-3 0  9992",
    "TLE_LINE2": "2 54758  53.2154 211.6817 0001460  81.9159 278.1999 15.08844854162080",
    "COMMENT": "Grouped by shell and plane from TLE"
  },
  {
    "OBJECT_NAME": "STARLINK-5215",
    "OBJECT_ID": "22175B",
    "EPOCH": "2025-11-11T00:55:06.648960",
    "MEAN_MOTION": 15.08877768,
    "ECCENTRICITY": 0.0001305,
    "INCLINATION": 53.2147,
    "RA_OF_ASC_NODE": 211.9959,
    "ARG_OF_PERICENTER": 94.776,
    "MEAN_ANOMALY": 265.3381,
    "EPHEMERIS_TYPE": 0,
    "CLASSIFICATION_TYPE": "U",
    "NORAD_CAT_ID": 54759,
    "ELEMENT_SET_NO": 999,
    "REV_AT_EPOCH": 16207,
    "BSTAR": 0.00093392,
    "MEAN_MOTION_DOT": 0.00014622,
    "MEAN_MOTION_DDOT": 0.0,
    "TLE_LINE1": "1 54759U 22175B   25315.03827140  .00014622  00000+0  93392-3 0  9991",
    "TLE_LINE2": "2 54759  53.2147 211.9959 0001305  94.7760 265.3381 15.08877768162073",
    "COMMENT": "Grouped by shell and plane from TLE"
  },
  {
    "OBJECT_NAME": "STARLINK-5220",
    "OBJECT_ID": "22175C",
    "EPOCH": "2025-11-11T04:02:33.284256",
    "MEAN_MOTION": 15.08848045,
    "ECCENTRICITY": 0.0002055,
    "INCLINATION": 53.2182,
    "RA_OF_ASC_NODE": 216.3771,
    "ARG_OF_PERICENTER": 96.7275,
    "MEAN_ANOMALY": 263.3952,
    "EPHEMERIS_TYPE": 0,
    "CLASSIFICATION_TYPE": "U",
    "NORAD_CAT_ID": 54760,
    "ELEMENT_SET_NO": 999,
    "REV_AT_EPOCH": 16202,
    "BSTAR": 0.00015657,
    "MEAN_MOTION_DOT": 2.205e-05,
    "MEAN_MOTION_DDOT": 0.0,
    "TLE_LINE1": "1 54760U 22175C   25315.16844079  .00002205  00000+0  15657-3 0  9999",
    "TLE_LINE2": "2 54760  53.2182 216.3771 0002055  96.7275 263.3952 15.08848045162024",
    "COMMENT": "Grouped by shell and plane from TLE"
  },
  {
    "OBJECT_NAME": "STARLINK-5202",
    "OBJECT_ID": "22175D",
    "EPOCH": "2025-11-11T02:32:31.310016",
    "MEAN_MOTION": 15.08812151,
    "ECCENTRICITY": 0.0001312,
    "INCLINATION": 53.2167,
    "RA_OF_ASC_NODE": 216.6905,
    "ARG_OF_PERICENTER": 65.3262,
    "MEAN_ANOMALY": 294.7866,
    "EPHEMERIS_TYPE": 0,
    "CLASSIFICATION_TYPE": "U",
    "NORAD_CAT_ID": 54761,
    "ELEMENT_SET_NO": 999,
    "REV_AT_EPOCH": 16201,
    "BSTAR": 0.00012015,
    "MEAN_MOTION_DOT": 1.623e-05,
    "MEAN_MOTION_DDOT": 0.0,
    "TLE_LINE1": "1 54761U 22175D   25315.10591794  .00001623  00000+0  12015-3 0  9995",
    "TLE_LINE2": "2 54761  53.2167 216.6905 0001312  65.3262 294.7866 15.08812151162013",
    "COMMENT": "Grouped by shell and plane from TLE"
  },
  {
    "OBJECT_NAME": "STARLINK-5214",
    "OBJECT_ID": "22175E",
    "EPOCH": "2025-11-11T03:46:37.640640",
    "MEAN_MOTION": 15.08846734,
    "ECCENTRICITY": 0.0001372,
    "INCLINATION": 53.2156,
    "RA_OF_ASC_NODE": 216.3056,
    "ARG_OF_PERICENTER": 87.562,
    "MEAN_ANOMALY": 272.5529,
    "EPHEMERIS_TYPE": 0,
    "CLASSIFICATION_TYPE": "U",
    "NORAD_CAT_ID": 54762,
    "ELEMENT_SET_NO": 999,
    "REV_AT_EPOCH": 16202,
    "BSTAR": 0.00018249000000000002,
    "MEAN_MOTION_DOT": 2.618e-05,
    "MEAN_MOTION_DDOT": 0.0,
    "TLE_LINE1": "1 54762U 22175E   25315.15738010  .00002618  00000+0  18249-3 0  9995",
    "TLE_LINE2": "2 54762  53.2156 216.3056 0001372  87.5620 272.5529 15.08846734162021",
    "COMMENT": "Grouped by shell and plane from TLE"
  },
  {
    "OBJECT_NAME": "STARLINK-5191",
    "OBJECT_ID": "22175F",
    "EPOCH": "2025-11-11T03:57:15.281280",
    "MEAN_MOTION": 15.08859168,
    "ECCENTRICITY": 0.0001658,
    "INCLINATION": 53.2151,
    "RA_OF_ASC_NODE": 216.35,
    "ARG_OF_PERICENTER": 34.7298,
    "MEAN_ANOMALY": 325.3803,
    "EPHEMERIS_TYPE": 0,
    "CLASSIFICATION_TYPE": "U",
    "NORAD_CAT_ID": 54763,
    "ELEMENT_SET_NO": 999,
    "REV_AT_EPOCH": 16202,
    "BSTAR": 0.0,
    "MEAN_MOTION_DOT": -1.569e-05,
    "MEAN_MOTION_DDOT": 0.0,
    "TLE_LINE1": "1 54763U 22175F   25315.16476020 -.00001569  00000+0 -80475-4 0  9994",
    "TLE_LINE2": "2 54763  53.2151 216.3500 0001658  34.7298 325.3803 15.08859168162020",
    "COMMENT": "Grouped by shell and plane from TLE"
  },
  {
    "OBJECT_NAME": "STARLINK-5458",
    "OBJECT_ID": "22175G",
    "EPOCH": "2025-11-11T03:26:46.687488",
    "MEAN_MOTION": 15.08864858,
    "ECCENTRICITY": 0.0001336,
    "INCLINATION": 53.2167,
    "RA_OF_ASC_NODE": 216.2212,
    "ARG_OF_PERICENTER": 93.4444,
    "MEAN_ANOMALY": 266.6701,
    "EPHEMERIS_TYPE": 0,
    "CLASSIFICATION_TYPE": "U",
    "NORAD_CAT_ID": 54764,
    "ELEMENT_SET_NO": 999,
    "REV_AT_EPOCH": 16202,
    "BSTAR": 0.0,
    "MEAN_MOTION_DOT": -1.512e-05,
    "MEAN_MOTION_DDOT": 0.0,
    "TLE_LINE1": "1 54764U 22175G   25315.14359592 -.00001512  00000+0 -76844-4 0  9990",
    "TLE_LINE2": "2 54764  53.2167 216.2212 0001336  93.4444 266.6701 15.08864858162021",
    "COMMENT": "Grouped by shell and plane from TLE"
  },
  {
    "OBJECT_NAME": "STARLINK-5471",
    "OBJECT_ID": "22175J",
    "EPOCH": "2025-11-11T02:00:38.464992",
    "MEAN_MOTION": 15.08845964,
    "ECCENTRICITY": 0.0001445,
    "INCLINATION": 53.2164,
    "RA_OF_ASC_NODE": 216.5592,
    "ARG_OF_PERICENTER": 88.9803,
    "MEAN_ANOMALY": 271.1355,
    "EPHEMERIS_TYPE": 0,
    "CLASSIFICATION_TYPE": "U",
    "NORAD_CAT_ID": 54766,
    "ELEMENT_SET_NO": 999,
    "REV_AT_EPOCH": 16201,
    "BSTAR": 0.00038468000000000004,
    "MEAN_MOTION_DOT": 5.841e-05,
    "MEAN_MOTION_DDOT": 0.0,
    "TLE_LINE1": "1 54766U 22175J   25315.08377853  .00005841  00000+0  38468-3 0  9991",
    "TLE_LINE2": "2 54766  53.2164 216.5592 0001445  88.9803 271.1355 15.08845964162015",
    "COMMENT": "Grouped by shell and plane from TLE"
  },
  {
    "OBJECT_NAME": "STARLINK-5472",
    "OBJECT_ID": "22175K",
    "EPOCH": "2025-11-11T03:30:42.083424",
    "MEAN_MOTION": 15.08866728,
    "ECCENTRICITY": 0.0002625,
    "INCLINATION": 53.2187,
    "RA_OF_ASC_NODE": 216.2343,
    "ARG_OF_PERICENTER": 125.2176,
    "MEAN_ANOMALY": 234.9063,
    "EPHEMERIS_TYPE": 0,
    "CLASSIFICATION_TYPE": "U",
    "NORAD_CAT_ID": 54767,
    "ELEMENT_SET_NO": 999,
    "REV_AT_EPOCH": 16202,
    "BSTAR": 0.0,
    "MEAN_MOTION_DOT": -5.921e-05,
    "MEAN_MOTION_DDOT": 0.0,
    "TLE_LINE1": "1 54767U 22175K   25315.14632041 -.00005921  00000+0 -35389-3 0  9992",
    "TLE_LINE2": "2 54767  53.2187 216.2343 0002625 125.2176 234.9063 15.08866728162026",
    "COMMENT": "Grouped by shell and plane from TLE"
  },
  {
    "OBJECT_NAME": "STARLINK-5451",
    "OBJECT_ID": "22175P",
    "EPOCH": "2025-11-11T03:07:30.470592",
    "MEAN_MOTION": 15.08844046,
    "ECCENTRICITY": 0.0001253,
    "INCLINATION": 53.2172,
    "RA_OF_ASC_NODE": 211.1543,
    "ARG_OF_PERICENTER": 90.7956,
    "MEAN_ANOMALY": 269.318,
    "EPHEMERIS_TYPE": 0,
    "CLASSIFICATION_TYPE": "U",
    "NORAD_CAT_ID": 54771,
    "ELEMENT_SET_NO": 999,
    "REV_AT_EPOCH": 16209,
    "BSTAR": 0.00024068,
    "MEAN_MOTION_DOT": 3.545e-05,
    "MEAN_MOTION_DDOT": 0.0,
    "TLE_LINE1": "1 54771U 22175P   25315.13021378  .00003545  00000+0  24068-3 0  9991",
    "TLE_LINE2": "2 54771  53.2172 211.1543 0001253  90.7956 269.3180 15.08844046162097",
    "COMMENT": "Grouped by shell and plane from TLE"
  },
  {
    "OBJECT_NAME": "STARLINK-5453",
    "OBJECT_ID": "22175R",
    "EPOCH": "2025-11-11T03:20:05.686080",
    "MEAN_MOTION": 15.0885427,
    "ECCENTRICITY": 0.0001427,
    "INCLINATION": 53.2171,
    "RA_OF_ASC_NODE": 216.1916,
    "ARG_OF_PERICENTER": 95.39,
    "MEAN_ANOMALY": 264.7255,
    "EPHEMERIS_TYPE": 0,
    "CLASSIFICATION_TYPE": "U",
    "NORAD_CAT_ID": 54773,
    "ELEMENT_SET_NO": 999,
    "REV_AT_EPOCH": 16202,
    "BSTAR": 0.00015570000000000002,
    "MEAN_MOTION_DOT": 2.192e-05,
    "MEAN_MOTION_DDOT": 0.0,
    "TLE_LINE1": "1 54773U 22175R   25315.13895470  .00002192  00000+0  15570-3 0  9990",
    "TLE_LINE2": "2 54773  53.2171 216.1916 0001427  95.3900 264.7255 15.08854270162025",
    "COMMENT": "Grouped by shell and plane from TLE"
  }
]